OBJECT_NAME,OBJECT_ID,EPOCH,MEAN_MOTION,ECCENTRICITY,INCLINATION,RA_OF_ASC_NODE,ARG_OF_PERICENTER,MEAN_ANOMALY,EPHEMERIS_TYPE,CLASSIFICATION_TYPE,NORAD_CAT_ID,ELEMENT_SET_NO,REV_AT_EPOCH,BSTAR,MEAN_MOTION_DOT,MEAN_MOTION_DDOT
CUTE-1 (CO-55),2003-031E,2026-07-13T10:48:24.576480,14.24350896,.00108034,98.6742,202.6793,107.1223,253.1140,0,U,27844,999,19541,.8684817E-4,.157E-5,0
CUBESAT XI-IV (CO-57),2003-031J,2026-07-13T12:32:00.136320,14.23634004,.00104861,98.6773,202.4416,123.7879,236.4299,0,U,27848,999,19512,.75510188E-4,.129E-5,0
CUBESAT XI-V,2005-043F,2026-07-13T10:12:39.204000,14.72699773,.00151946,98.3010,350.6030,120.4468,239.8242,0,U,28895,999,10561,.12096734E-3,.72E-5,0
CUTE-1.7+APD II (CO-65),2008-021C,2026-07-13T13:32:09.840192,15.09691192,.00071782,97.8288,176.5377,306.1593,53.8971,0,U,32785,999,98917,.19898133E-3,.3139E-4,0
CANX-2,2008-021H,2026-07-13T11:19:03.741312,15.05800237,.00088833,97.8656,174.7657,324.7576,35.3062,0,U,32790,999,98876,.13321358E-3,.1867E-4,0
SEEDS II (CO-66),2008-021J,2026-07-13T12:03:43.890048,15.33629018,.00028857,97.7522,193.6748,159.9785,200.1570,0,U,32791,999,99132,.32807645E-3,.10586E-3,0
SWISSCUBE,2009-051B,2026-07-13T15:29:53.771136,14.62529160,.0007783,98.4010,102.9928,123.1717,237.0231,0,U,35932,999,89302,.10617916E-3,.489E-5,0
BEESAT-1,2009-051C,2026-07-13T12:46:15.900672,14.61760314,.00060306,98.3938,102.4573,134.1484,226.0213,0,U,35933,999,89303,.89036067E-4,.395E-5,0
ITUPSAT1,2009-051E,2026-07-11T23:17:18.975264,14.60475983,.0007861,98.4023,100.0372,152.4089,207.7529,0,U,35935,999,89235,.90105677E-4,.388E-5,0
TISAT 1,2010-035E,2026-07-13T08:53:27.764736,15.32686930,.0004358,98.0710,143.2639,123.2911,236.8747,0,U,36799,999,87171,.38991974E-3,.12229E-3,0
STRAND-1,2013-009E,2026-07-13T10:37:14.800224,14.37178253,.00093202,98.3932,14.0322,145.9311,214.2476,0,U,39090,999,70083,.62097746E-4,.142E-5,0
BRITE-AUSTRIA,2013-009F,2026-07-13T11:12:11.478528,14.36552090,.00106667,98.4006,13.2537,155.6045,204.5649,0,U,39091,999,70082,.43851105E-4,.86E-6,0
NEE-01 PEGASO,2013-018B,2026-07-13T09:22:48.647712,14.93784279,.00136726,98.1250,339.4132,79.6258,280.6501,0,U,39151,999,71461,.10395483E-3,.1042E-4,0
POPACS 2,2013-055E,2026-07-13T04:56:34.842048,14.91964314,.04150914,80.9920,114.4009,110.2648,254.3692,0,U,39269,999,66709,.22645196E-3,.13879E-3,-.912864E-6
POPACS 3,2013-055F,2026-07-13T10:21:38.734848,14.56630802,.05490077,80.9985,200.7186,350.0516,9.0141,0,U,39270,999,64237,.20653332E-3,.8706E-4,0
ZACUBE-1 (TSHEPISOSAT),2013-066B,2026-07-13T11:14:30.041664,15.01324440,.00439319,97.8010,156.9353,160.7484,199.5412,0,U,39417,999,68467,.10702687E-3,.1341E-4,0
WNISAT-1,2013-066H,2026-07-13T08:34:33.712032,14.58117494,.01637773,97.7231,341.6602,149.0734,212.0239,0,U,39423,999,67054,.12514176E-3,.645E-5,0
TRITON-1,2013-066M,2026-07-13T15:10:23.848608,14.81789694,.00904481,97.8229,103.8356,147.1473,213.5408,0,U,39427,999,67800,.7357694E-4,.566E-5,0
GOMX-1,2013-066Q,2026-07-13T14:31:27.647904,14.69540867,.01284377,97.6474,33.4013,353.3274,6.6217,0,U,39430,999,67379,.13537208E-3,.859E-5,0
CUBEBUG-2 (LO-74),2013-066AA,2026-07-13T09:17:00.180960,14.93959550,.00558891,97.8910,143.4812,301.4913,58.0852,0,U,39440,999,68090,.18138212E-3,.1928E-4,0
NEE-02 KRYSAOR,2013-066AB,2026-07-13T09:22:44.076288,14.86734463,.00655944,97.8898,133.4211,345.2283,14.7014,0,U,39441,999,68009,.14150883E-3,.1249E-4,0
FUNCUBE-1 (AO-73),2013-066AE,2026-07-13T10:29:12.641568,15.09805136,.00380208,97.8287,166.4387,113.3139,247.2098,0,U,39444,999,68362,.22112613E-3,.3565E-4,0
UWE-3,2013-066AG,2026-07-13T09:58:18.421536,14.97191819,.00474939,97.8702,150.6713,230.6805,129.0202,0,U,39446,999,68150,.16195396E-3,.1852E-4,0
BRITE-CA1 (TORONTO),2014-033L,2026-07-13T14:29:33.972288,14.72720611,.00783216,97.9769,323.0497,191.3587,168.5856,0,U,40020,999,64610,.86342804E-4,.524E-5,0
DUCHIFAT-1,2014-033M,2026-07-13T15:23:35.707200,15.70712064,.00021782,98.0437,257.6444,255.1227,104.9792,0,U,40021,999,65989,.74874058E-3,.93289E-3,0
NANOSATC-BR1,2014-033Q,2026-07-13T14:16:42.207744,15.32294510,.0005339,98.0713,229.3376,101.9900,258.1938,0,U,40024,999,65802,.32852321E-3,.10162E-3,0
QB50P1,2014-033R,2026-07-13T12:13:07.720032,15.18650045,.00103485,98.0963,207.5077,130.1673,230.0467,0,U,40025,999,65702,.23878477E-3,.4875E-4,0
QB50P2,2014-033Y,2026-07-13T10:44:25.202688,15.15492857,.00093578,98.0758,192.9699,88.7327,271.4976,0,U,40032,999,65664,.19749502E-3,.3667E-4,0
PERSEUS-M2,2014-033AD,2026-07-13T14:59:54.188736,14.95589012,.00107127,97.9971,145.7062,204.2039,155.8679,0,U,40037,999,65473,.1379498E-3,.1471E-4,0
PERSEUS-M1,2014-033AF,2026-07-13T09:28:54.762528,14.95711497,.00108033,97.9652,138.9596,202.5697,157.5050,0,U,40039,999,65455,.12405034E-3,.1321E-4,0
